start=new Date('2023-05-21T00:00:00.000Z').valueOf();
sats=[{"FILE":"3913175","SITE":"AFETR","GP_ID":"232210294","MEAN_MOTION":"15.08850629","CENTER_NAME":"EARTH","RCS_SIZE":"LARGE","DECAY_DATE":null,"ECCENTRICITY":"0.00010650","INCLINATION":"53.2164","ELEMENT_SET_NO":"999","OBJECT_NAME":"STARLINK-4796","OBJECT_TYPE":"PAYLOAD","PERIAPSIS":"538.976","MEAN_MOTION_DOT":"0.00002751","ARG_OF_PERICENTER":"96.0967","LAUNCH_DATE":"2022-09-24","APOAPSIS":"540.450","NORAD_CAT_ID":"53909","COUNTRY_CODE":"US","REF_FRAME":"TEME","SEMIMAJOR_AXIS":"6917.848","REV_AT_EPOCH":"3721","MEAN_ANOMALY":"264.0147","TIME_SYSTEM":"UTC","RA_OF_ASC_NODE":"231.8403","MEAN_ELEMENT_THEORY":"SGP4","CLASSIFICATION_TYPE":"U","TLE_LINE1":"1 53909U 22119Z   23140.56822107  .00002751  00000-0  19078-3 0  9995","MEAN_MOTION_DDOT":"0.0000000000000","BSTAR":"0.00019078000000","EPHEMERIS_TYPE":"0","PERIOD":"95.437","OBJECT_ID":"2022-119Z","EPOCH":"2023-05-20T13:38:14.300448","TLE_LINE2":"2 53909  53.2164 231.8403 0001065  96.0967 264.0147 15.08850629 37210"},{"OBJECT_TYPE":"PAYLOAD","PERIAPSIS":"538.984","MEAN_MOTION_DOT":"0.00002233","ARG_OF_PERICENTER":"94.5509","MEAN_MOTION":"15.08847652","GP_ID":"232211044","FILE":"3913175","SITE":"AFETR","ECCENTRICITY":"0.00010670","INCLINATION":"53.2155","CENTER_NAME":"EARTH","RCS_SIZE":"LARGE","DECAY_DATE":null,"ELEMENT_SET_NO":"999","OBJECT_NAME":"STARLINK-5056","CLASSIFICATION_TYPE":"U","MEAN_ELEMENT_THEORY":"SGP4","BSTAR":"0.00015829000000","TLE_LINE1":"1 53910U 22119AA  23140.54979926  .00002233  00000-0  15829-3 0  9992","MEAN_MOTION_DDOT":"0.0000000000000","OBJECT_ID":"2022-119AA","PERIOD":"95.437","EPHEMERIS_TYPE":"0","TLE_LINE2":"2 53910  53.2155 231.7271 0001067  94.5509 265.5605 15.08847652 37218","EPOCH":"2023-05-20T13:11:42.656064","NORAD_CAT_ID":"53910","APOAPSIS":"540.460","COUNTRY_CODE":"US","LAUNCH_DATE":"2022-09-24","REV_AT_EPOCH":"3721","SEMIMAJOR_AXIS":"6917.857","MEAN_ANOMALY":"265.5605","REF_FRAME":"TEME","TIME_SYSTEM":"UTC","RA_OF_ASC_NODE":"231.7271"},{"ARG_OF_PERICENTER":"103.1919","MEAN_MOTION_DOT":"0.00005125","OBJECT_TYPE":"PAYLOAD","PERIAPSIS":"538.915","OBJECT_NAME":"STARLINK-5048","ELEMENT_SET_NO":"999","INCLINATION":"53.2152","ECCENTRICITY":"0.00011310","RCS_SIZE":"LARGE","CENTER_NAME":"EARTH","DECAY_DATE":null,"GP_ID":"232209797","MEAN_MOTION":"15.08855826","FILE":"3913175","SITE":"AFETR","TLE_LINE2":"2 53911  53.2152 231.4995 0001131 103.1919 256.9199 15.08855826 37225","EPOCH":"2023-05-20T15:03:00.867168","OBJECT_ID":"2022-119AB","PERIOD":"95.437","EPHEMERIS_TYPE":"0","BSTAR":"0.00033973000000","TLE_LINE1":"1 53911U 22119AB  23140.62709337  .00005125  00000-0  33973-3 0  9992","MEAN_MOTION_DDOT":"0.0000000000000","CLASSIFICATION_TYPE":"U","MEAN_ELEMENT_THEORY":"SGP4","TIME_SYSTEM":"UTC","RA_OF_ASC_NODE":"231.4995","SEMIMAJOR_AXIS":"6917.832","REV_AT_EPOCH":"3722","MEAN_ANOMALY":"256.9199","REF_FRAME":"TEME","APOAPSIS":"540.479","NORAD_CAT_ID":"53911","COUNTRY_CODE":"US","LAUNCH_DATE":"2022-09-24"},{"MEAN_ELEMENT_THEORY":"SGP4","CLASSIFICATION_TYPE":"U","MEAN_MOTION_DDOT":"0.0000000000000","TLE_LINE1":"1 53912U 22119AC  23140.57550502  .00002308  00000-0  16301-3 0  9991","BSTAR":"0.00016301000000","EPHEMERIS_TYPE":"0","OBJECT_ID":"2022-119AC","PERIOD":"95.437","EPOCH":"2023-05-20T13:48:43.633728","TLE_LINE2":"2 53912  53.2170 231.1889 0001186  81.9134 278.1992 15.08854510 37223","LAUNCH_DATE":"2022-09-24","COUNTRY_CODE":"US","NORAD_CAT_ID":"53912","APOAPSIS":"540.521","REF_FRAME":"TEME","MEAN_ANOMALY":"278.1992","REV_AT_EPOCH":"3722","SEMIMAJOR_AXIS":"6917.836","RA_OF_ASC_NODE":"231.1889","TIME_SYSTEM":"UTC","OBJECT_TYPE":"PAYLOAD","PERIAPSIS":"538.881","MEAN_MOTION_DOT":"0.00002308","ARG_OF_PERICENTER":"81.9134","SITE":"AFETR","FILE":"3913175","MEAN_MOTION":"15.08854510","GP_ID":"232210548","DECAY_DATE":null,"CENTER_NAME":"EARTH","RCS_SIZE":"LARGE","ECCENTRICITY":"0.00011860","INCLINATION":"53.2170","ELEMENT_SET_NO":"999","OBJECT_NAME":"STARLINK-5059"},{"PERIAPSIS":"538.985","OBJECT_TYPE":"PAYLOAD","ARG_OF_PERICENTER":"111.1289","MEAN_MOTION_DOT":"0.00001703","INCLINATION":"53.2159","ECCENTRICITY":"0.00010350","DECAY_DATE":null,"CENTER_NAME":"EARTH","RCS_SIZE":"LARGE","GP_ID":"232210794","MEAN_MOTION":"15.08854570","SITE":"AFETR","FILE":"3913175","OBJECT_NAME":"STARLINK-5053","ELEMENT_SET_NO":"999","BSTAR":"0.00012500000000","TLE_LINE1":"1 53913U 22119AD  23140.67490143  .00001703  00000-0  12500-3 0  9992","MEAN_MOTION_DDOT":"0.0000000000000","CLASSIFICATION_TYPE":"U","MEAN_ELEMENT_THEORY":"SGP4","TLE_LINE2":"2 53913  53.2159 231.0841 0001035 111.1289 248.9814 15.08854570 37233","EPOCH":"2023-05-20T16:11:51.483552","PERIOD":"95.437","OBJECT_ID":"2022-119AD","EPHEMERIS_TYPE":"0","COUNTRY_CODE":"US","NORAD_CAT_ID":"53913","APOAPSIS":"540.417","LAUNCH_DATE":"2022-09-24","RA_OF_ASC_NODE":"231.0841","TIME_SYSTEM":"UTC","MEAN_ANOMALY":"248.9814","REV_AT_EPOCH":"3723","SEMIMAJOR_AXIS":"6917.836","REF_FRAME":"TEME"},{"COUNTRY_CODE":"US","APOAPSIS":"540.668","NORAD_CAT_ID":"53914","LAUNCH_DATE":"2022-09-24","MEAN_ANOMALY":"289.5337","REV_AT_EPOCH":"3726","SEMIMAJOR_AXIS":"6917.868","REF_FRAME":"TEME","RA_OF_ASC_NODE":"230.1717","TIME_SYSTEM":"UTC","CLASSIFICATION_TYPE":"U","MEAN_ELEMENT_THEORY":"SGP4","MEAN_MOTION_DDOT":"0.0000000000000","TLE_LINE1":"1 53914U 22119AE  23140.86994876 -.00002647  00000-0 -14827-3 0  9990","BSTAR":"-0.00014827000000","OBJECT_ID":"2022-119AE","PERIOD":"95.437","EPHEMERIS_TYPE":"0","TLE_LINE2":"2 53914  53.2147 230.1717 0001351  70.5801 289.5337 15.08843905 37266","EPOCH":"2023-05-20T20:52:43.572864","GP_ID":"232211043","MEAN_MOTION":"15.08843905","SITE":"AFETR","FILE":"3913175","ECCENTRICITY":"0.00013510","INCLINATION":"53.2147","DECAY_DATE":null,"RCS_SIZE":"LARGE","CENTER_NAME":"EARTH","ELEMENT_SET_NO":"999","OBJECT_NAME":"STARLINK-5040","OBJECT_TYPE":"PAYLOAD","PERIAPSIS":"538.799","MEAN_MOTION_DOT":"-0.00002647","ARG_OF_PERICENTER":"70.5801"},{"TLE_LINE1":"1 53915U 22119AF  23140.55348248  .00002201  00000-0  15631-3 0  9991","BSTAR":"0.00015631000000","MEAN_MOTION_DDOT":"0.0000000000000","MEAN_ELEMENT_THEORY":"SGP4","CLASSIFICATION_TYPE":"U","EPOCH":"2023-05-20T13:17:00.886272","TLE_LINE2":"2 53915  53.2151 231.7487 0001179 104.3180 255.7943 15.08848909 37219","EPHEMERIS_TYPE":"0","OBJECT_ID":"2022-119AF","PERIOD":"95.437","LAUNCH_DATE":"2022-09-24","COUNTRY_CODE":"US","APOAPSIS":"540.534","NORAD_CAT_ID":"53915","RA_OF_ASC_NODE":"231.7487","TIME_SYSTEM":"UTC","REF_FRAME":"TEME","MEAN_ANOMALY":"255.7943","SEMIMAJOR_AXIS":"6917.853","REV_AT_EPOCH":"3721","PERIAPSIS":"538.903","OBJECT_TYPE":"PAYLOAD","ARG_OF_PERICENTER":"104.3180","MEAN_MOTION_DOT":"0.00002201","DECAY_DATE":null,"CENTER_NAME":"EARTH","RCS_SIZE":"LARGE","INCLINATION":"53.2151","ECCENTRICITY":"0.00011790","SITE":"AFETR","FILE":"3913175","GP_ID":"232209298","MEAN_MOTION":"15.08848909","OBJECT_NAME":"STARLINK-5017","ELEMENT_SET_NO":"999"},{"TIME_SYSTEM":"UTC","RA_OF_ASC_NODE":"209.7394","REF_FRAME":"TEME","REV_AT_EPOCH":"3756","SEMIMAJOR_AXIS":"6917.877","MEAN_ANOMALY":"271.2230","LAUNCH_DATE":"2022-09-24","APOAPSIS":"540.362","NORAD_CAT_ID":"53916","COUNTRY_CODE":"US","EPOCH":"2023-05-20T21:37:42.960288","TLE_LINE2":"2 53916  53.2174 209.7394 0000897  88.8865 271.2230 15.08841157 37567","EPHEMERIS_TYPE":"0","OBJECT_ID":"2022-119AG","PERIOD":"95.437","BSTAR":"0.00005192500000","TLE_LINE1":"1 53916U 22119AG  23140.90119167  .00000539  00000-0  51925-4 0  9996","MEAN_MOTION_DDOT":"0.0000000000000","MEAN_ELEMENT_THEORY":"SGP4","CLASSIFICATION_TYPE":"U","OBJECT_NAME":"STARLINK-5051","ELEMENT_SET_NO":"999","RCS_SIZE":"LARGE","CENTER_NAME":"EARTH","DECAY_DATE":null,"ECCENTRICITY":"0.00008970","INCLINATION":"53.2174","FILE":"3913175","SITE":"AFETR","GP_ID":"232210049","MEAN_MOTION":"15.08841157","ARG_OF_PERICENTER":"88.8865","MEAN_MOTION_DOT":"0.00000539","OBJECT_TYPE":"PAYLOAD","PERIAPSIS":"539.121"},{"OBJECT_NAME":"STARLINK-5036","ELEMENT_SET_NO":"999","INCLINATION":"53.2151","ECCENTRICITY":"0.00009280","DECAY_DATE":null,"RCS_SIZE":"LARGE","CENTER_NAME":"EARTH","GP_ID":"232210295","MEAN_MOTION":"15.08851741","SITE":"AFETR","FILE":"3913175","ARG_OF_PERICENTER":"84.4568","MEAN_MOTION_DOT":"0.00002379","OBJECT_TYPE":"PAYLOAD","PERIAPSIS":"539.068","RA_OF_ASC_NODE":"231.7035","TIME_SYSTEM":"UTC","MEAN_ANOMALY":"275.6529","REV_AT_EPOCH":"3721","SEMIMAJOR_AXIS":"6917.845","REF_FRAME":"TEME","COUNTRY_CODE":"US","APOAPSIS":"540.351","NORAD_CAT_ID":"53917","LAUNCH_DATE":"2022-09-24","TLE_LINE2":"2 53917  53.2151 231.7035 0000928  84.4568 275.6529 15.08851741 37218","EPOCH":"2023-05-20T13:06:24.038784","PERIOD":"95.437","OBJECT_ID":"2022-119AH","EPHEMERIS_TYPE":"0","TLE_LINE1":"1 53917U 22119AH  23140.54611156  .00002379  00000-0  16742-3 0  9993","BSTAR":"0.00016742000000","MEAN_MOTION_DDOT":"0.0000000000000","CLASSIFICATION_TYPE":"U","MEAN_ELEMENT_THEORY":"SGP4"},{"ELEMENT_SET_NO":"999","OBJECT_NAME":"STARLINK-5012","MEAN_MOTION":"15.08850313","GP_ID":"232211045","FILE":"3913175","SITE":"AFETR","ECCENTRICITY":"0.00010700","INCLINATION":"53.2164","CENTER_NAME":"EARTH","RCS_SIZE":"LARGE","DECAY_DATE":null,"MEAN_MOTION_DOT":"0.00002780","ARG_OF_PERICENTER":"74.8353","OBJECT_TYPE":"PAYLOAD","PERIAPSIS":"538.974","REV_AT_EPOCH":"3721","SEMIMAJOR_AXIS":"6917.849","MEAN_ANOMALY":"285.2758","REF_FRAME":"TEME","TIME_SYSTEM":"UTC","RA_OF_ASC_NODE":"231.6347","APOAPSIS":"540.454","NORAD_CAT_ID":"53918","COUNTRY_CODE":"US","LAUNCH_DATE":"2022-09-24","PERIOD":"95.437","OBJECT_ID":"2022-119AJ","EPHEMERIS_TYPE":"0","TLE_LINE2":"2 53918  53.2164 231.6347 0001070  74.8353 285.2758 15.08850313 37217","EPOCH":"2023-05-20T12:50:28.736448","CLASSIFICATION_TYPE":"U","MEAN_ELEMENT_THEORY":"SGP4","TLE_LINE1":"1 53918U 22119AJ  23140.53505482  .00002780  00000-0  19260-3 0  9991","MEAN_MOTION_DDOT":"0.0000000000000","BSTAR":"0.00019260000000"}];
